$$SOE
2460147.500000000, A.D. 2023-Jul-22 00:00:00.0000, -5.680850186632627E+07, -3.112847529537268E+08, -3.933566054761548E+07,
2460154.500000000, A.D. 2023-Jul-29 00:00:00.0000, -4.572051663519292E+07, -3.134434817487509E+08, -3.605829769190960E+07,
2460161.500000000, A.D. 2023-Aug-05 00:00:00.0000, -3.456408434186881E+07, -3.151326557355341E+08, -3.272691560466386E+07,
2460168.500000000, A.D. 2023-Aug-12 00:00:00.0000, -2.335587317026215E+07, -3.163493061815413E+08, -2.934645961990678E+07,
2460175.500000000, A.D. 2023-Aug-19 00:00:00.0000, -1.211264547625824E+07, -3.170909745876893E+08, -2.592193996662584E+07,
2460182.500000000, A.D. 2023-Aug-26 00:00:00.0000, -8.512535593234223E+05, -3.173557165399300E+08, -2.245843073965672E+07,
2460189.500000000, A.D. 2023-Sep-02 00:00:00.0000, 1.041136464736990E+07, -3.171421065342633E+08, -1.896106890446354E+07,
2460196.500000000, A.D. 2023-Sep-09 00:00:00.0000, 2.165819008945316E+07, -3.164492438221722E+08, -1.543505331752834E+07,
2460203.500000000, A.D. 2023-Sep-16 00:00:00.0000, 3.287212755946063E+07, -3.152767593415348E+08, -1.188564375720663E+07,
2460210.500000000, A.D. 2023-Sep-23 00:00:00.0000, 4.403601162136216E+07, -3.136248234500897E+08, -8.318159953259349E+06,
2460217.500000000, A.D. 2023-Sep-30 00:00:00.0000, 5.513261323817981E+07, -3.114941532695073E+08, -4.737980458950430E+06,
2460224.500000000, A.D. 2023-Oct-07 00:00:00.0000, 6.614464483779731E+07, -3.088860201751255E+08, -1.150541165677130E+06,
2460231.500000000, A.D. 2023-Oct-14 00:00:00.0000, 7.705476495025423E+07, -3.058022607307917E+08, 2.438666202788681E+06,
2460238.500000000, A.D. 2023-Oct-21 00:00:00.0000, 8.784558574335159E+07, -3.022452894518300E+08, 6.024095481399432E+06,
2460245.500000000, A.D. 2023-Oct-28 00:00:00.0000, 9.849968213241684E+07, -2.982181111197297E+08, 9.600147687661007E+06,
2460252.500000000, A.D. 2023-Nov-04 00:00:00.0000, 1.089996013165585E+08, -2.937243333953024E+08, 1.316117296376565E+07,
2460259.500000000, A.D. 2023-Nov-11 00:00:00.0000, 1.193278730248973E+08, -2.887681802987919E+08, 1.670147280723131E+07,
2460266.500000000, A.D. 2023-Nov-18 00:00:00.0000, 1.294670208014722E+08, -2.833545065825303E+08, 2.021530260187736E+07,
2460273.500000000, A.D. 2023-Nov-25 00:00:00.0000, 1.393995745130314E+08, -2.774888129259579E+08, 2.369687448296662E+07,
2460280.500000000, A.D. 2023-Dec-02 00:00:00.0000, 1.491080842218660E+08, -2.711772619048417E+08, 2.714036057239704E+07,
2460287.500000000, A.D. 2023-Dec-09 00:00:00.0000, 1.585751356211759E+08, -2.644266947224511E+08, 3.053989661227502E+07,
2460294.500000000, A.D. 2023-Dec-16 00:00:00.0000, 1.677833674464176E+08, -2.572446486112506E+08, 3.388958601454303E+07,
2460301.500000000, A.D. 2023-Dec-23 00:00:00.0000, 1.767154913381023E+08, -2.496393741310762E+08, 3.718350439714939E+07,
2460308.500000000, A.D. 2023-Dec-30 00:00:00.0000, 1.853543129402177E+08, -2.416198512136537E+08, 4.041570486293309E+07,
2460315.500000000, A.D. 2024-Jan-06 00:00:00.0000, 1.936827525840312E+08, -2.331958061925496E+08, 4.358022403760330E+07,
2460322.500000000, A.D. 2024-Jan-13 00:00:00.0000, 2.016838688536982E+08, -2.243777314832825E+08, 4.667108847455121E+07,
2460329.500000000, A.D. 2024-Jan-20 00:00:00.0000, 2.093408863833329E+08, -2.151769046723658E+08, 4.968232161473213E+07,
2460336.500000000, A.D. 2024-Jan-27 00:00:00.0000, 2.166372259797290E+08, -2.056054061905582E+08, 5.260795159087049E+07,
2460343.500000000, A.D. 2024-Feb-03 00:00:00.0000, 2.235565367587484E+08, -1.956761363251458E+08, 5.544201988733791E+07,
2460350.500000000, A.D. 2024-Feb-10 00:00:00.0000, 2.300827306818676E+08, -1.854028316456774E+08, 5.817859085521279E+07,
2460357.500000000, A.D. 2024-Feb-17 00:00:00.0000, 2.362000197317992E+08, -1.748000805953870E+08, 6.081176211814733E+07,
2460364.500000000, A.D. 2024-Feb-24 00:00:00.0000, 2.418929558515322E+08, -1.638833379702803E+08, 6.333567591307078E+07,
2460371.500000000, A.D. 2024-Mar-02 00:00:00.0000, 2.471464737482499E+08, -1.526689380310526E+08, 6.574453140338653E+07,
2460378.500000000, A.D. 2024-Mar-09 00:00:00.0000, 2.519459367523271E+08, -1.411741059962010E+08, 6.803259798420197E+07,
2460385.500000000, A.D. 2024-Mar-16 00:00:00.0000, 2.562771861582876E+08, -1.294169673751845E+08, 7.019422959210858E+07,
2460392.500000000, A.D. 2024-Mar-23 00:00:00.0000, 2.601265939569619E+08, -1.174165536676092E+08, 7.222388015221593E+07,
2460399.500000000, A.D. 2024-Mar-30 00:00:00.0000, 2.634811166976019E+08, -1.051928040778571E+08, 7.411612039342219E+07,
2460406.500000000, A.D. 2024-Apr-06 00:00:00.0000, 2.663283506657770E+08, -9.276656621316364E+07, 7.586565574223144E+07,
2460413.500000000, A.D. 2024-Apr-13 00:00:00.0000, 2.686565918102188E+08, -8.015959449749446E+07, 7.746734502550836E+07,
2460420.500000000, A.D. 2024-Apr-20 00:00:00.0000, 2.704548993092659E+08, -6.739454316765496E+07, 7.891622026118363E+07,
2460427.500000000, A.D. 2024-Apr-27 00:00:00.0000, 2.717131610623370E+08, -5.449495393792036E+07, 8.020750759313270E+07,
2460434.500000000, A.D. 2024-May-04 00:00:00.0000, 2.724221609505269E+08, -4.148523855360611E+07, 8.133664926105796E+07,
2460441.500000000, A.D. 2024-May-11 00:00:00.0000, 2.725736478037221E+08, -2.839065585777824E+07, 8.229932652175930E+07,
2460448.500000000, A.D. 2024-May-18 00:00:00.0000, 2.721604057862869E+08, -1.523728288436903E+07, 8.309148344309975E+07,
2460455.500000000, A.D. 2024-May-25 00:00:00.0000, 2.711763257816114E+08, -2.051979534468062E+06, 8.370935146807858E+07,
2460462.500000000, A.D. 2024-Jun-01 00:00:00.0000, 2.696164773168781E+08, 1.113765353679338E+07, 8.414947461109884E+07,
2460469.500000000, A.D. 2024-Jun-08 00:00:00.0000, 2.674771806817084E+08, 2.430332419713716E+07, 8.440873510599799E+07,
2460476.500000000, A.D. 2024-Jun-15 00:00:00.0000, 2.647560789675373E+08, 3.741610617693332E+07, 8.448437932567906E+07,
2460483.500000000, A.D. 2024-Jun-22 00:00:00.0000, 2.614522082757787E+08, 5.044650595577587E+07, 8.437404394836724E+07,
2460490.500000000, A.D. 2024-Jun-29 00:00:00.0000, 2.575660631753264E+08, 6.336453761242141E+07, 8.407578219151764E+07,
2460497.500000000, A.D. 2024-Jul-06 00:00:00.0000, 2.530996591918924E+08, 7.613980330236082E+07, 8.358808941383979E+07,
2460504.500000000, A.D. 2024-Jul-13 00:00:00.0000, 2.480565933426870E+08, 8.874158222699016E+07, 8.290992784677358E+07,
2460511.500000000, A.D. 2024-Jul-20 00:00:00.0000, 2.424420997501111E+08, 1.011389291769025E+08, 8.204075042227015E+07,
2460518.500000000, A.D. 2024-Jul-27 00:00:00.0000, 2.362630986684936E+08, 1.133007814957008E+08, 8.098052335344915E+07,
2460525.500000000, A.D. 2024-Aug-03 00:00:00.0000, 2.295282381678871E+08, 1.251960737551806E+08, 7.972974707133046E+07,
2460532.500000000, A.D. 2024-Aug-10 00:00:00.0000, 2.222479276097935E+08, 1.367938596545514E+08, 7.828947514952385E+07,
2460539.500000000, A.D. 2024-Aug-17 00:00:00.0000, 2.144343619499608E+08, 1.480634405268314E+08, 7.666133085648784E+07,
2460546.500000000, A.D. 2024-Aug-24 00:00:00.0000, 2.061015359253476E+08, 1.589744996318129E+08, 7.484752097485469E+07,
2460553.500000000, A.D. 2024-Aug-31 00:00:00.0000, 1.972652473364558E+08, 1.694972412163397E+08, 7.285084652595901E+07,
2460560.500000000, A.D. 2024-Sep-07 00:00:00.0000, 1.879430889810087E+08, 1.796025333552578E+08, 7.067471004933965E+07,
2460567.500000000, A.D. 2024-Sep-14 00:00:00.0000, 1.781544286362643E+08, 1.892620543004632E+08, 6.832311920682612E+07,
2460574.500000000, A.D. 2024-Sep-21 00:00:00.0000, 1.679203744973030E+08, 1.984484413359108E+08, 6.580068665047167E+07,
2460581.500000000, A.D. 2024-Sep-28 00:00:00.0000, 1.572637251801110E+08, 2.071354374044582E+08, 6.311262571095694E+07,
2460588.500000000, A.D. 2024-Oct-05 00:00:00.0000, 1.462089077782613E+08, 2.152980339125239E+08, 6.026474140790702E+07,
2460595.500000000, A.D. 2024-Oct-12 00:00:00.0000, 1.347819036250295E+08, 2.229126110069411E+08, 5.726341693823314E+07,
2460602.500000000, A.D. 2024-Oct-19 00:00:00.0000, 1.230101602262937E+08, 2.299570733391439E+08, 5.411559572573662E+07,
2460609.500000000, A.D. 2024-Oct-26 00:00:00.0000, 1.109224897801206E+08, 2.364109788098986E+08, 5.082875898961559E+07,
2460616.500000000, A.D. 2024-Nov-02 00:00:00.0000, 9.854895522049353E+07, 2.422556584808589E+08, 4.741089889070608E+07,
2460623.500000000, A.D. 2024-Nov-09 00:00:00.0000, 8.592074478675748E+07, 2.474743260866806E+08, 4.387048741792725E+07,
2460630.500000000, A.D. 2024-Nov-16 00:00:00.0000, 7.307003626338680E+07, 2.520521756783703E+08, 4.021644125684464E+07,
2460637.500000000, A.D. 2024-Nov-23 00:00:00.0000, 6.002985225251903E+07, 2.559764660326724E+08, 3.645808294787483E+07,
2460644.500000000, A.D. 2024-Nov-30 00:00:00.0000, 4.683390817686250E+07, 2.592365906572115E+08, 3.260509869335184E+07,
2460651.500000000, A.D. 2024-Dec-07 00:00:00.0000, 3.351645506744304E+07, 2.618241329021232E+08, 2.866749324886198E+07,
2460658.500000000, A.D. 2024-Dec-14 00:00:00.0000, 2.011211820172557E+07, 2.637329067318176E+08, 2.465554254736145E+07,
2460665.500000000, A.D. 2024-Dec-21 00:00:00.0000, 6.655731109053666E+06, 2.649589814651614E+08, 2.057974468194082E+07,
2460672.500000000, A.D. 2024-Dec-28 00:00:00.0000, -6.817831255395669E+06, 2.655006872951151E+08, 1.645076936905456E+07,
2460679.500000000, A.D. 2025-Jan-04 00:00:00.0000, -2.027381576903381E+07, 2.653586040556698E+08, 1.227940642665824E+07,
2460686.500000000, A.D. 2025-Jan-11 00:00:00.0000, -3.367775088787097E+07, 2.645355352544737E+08, 8.076514157616869E+06,
2460693.500000000, A.D. 2025-Jan-18 00:00:00.0000, -4.699560212790152E+07, 2.630364670650108E+08, 3.852968231140375E+06,
2460700.500000000, A.D. 2025-Jan-25 00:00:00.0000, -6.019392147566131E+07, 2.608685126736684E+08, -3.803884409577101E+05,
2460707.500000000, A.D. 2025-Feb-01 00:00:00.0000, -7.323998909622976E+07, 2.580408430225782E+08, -4.612794342525035E+06,
2460714.500000000, A.D. 2025-Feb-08 00:00:00.0000, -8.610194599254350E+07, 2.545646051766090E+08, -8.833616050906599E+06,
$$EOE